{"fetched_at":"2026-03-29T16:36:15Z","count":15609,"tles":[{"name":"STARLINK-35905","line1":"1 67048U 25294U   26087.94772101  .00031605  00000+0  11520-2 0  9996","line2":"2 67048  43.0019 289.3919 0003170 245.2988 114.7534 15.27608815 17741","category":"Starlink"}]}