{
  "norad_id": 67048,
  "name": "STARLINK-35905",
  "history": [
    {
      "epoch": "2026-03-28T22:44:43.095264",
      "apogee_km": 485.13778356111834,
      "perigee_km": 480.78784627846017,
      "latitude_deg": 2.6609394113147187,
      "longitude_deg": -104.21878304006532,
      "semi_major_axis_km": 6861.099814919789,
      "eccentricity": 0.000317,
      "inclination_deg": 43.0019,
      "raan_deg": 289.3919,
      "arg_perigee_deg": 245.2988,
      "mean_anomaly_deg": 114.7534,
      "mean_motion_rev_day": 15.27608815
    }
  ]
}